LUR-1                   
1 60506U 24149AQ  26068.79566301  .00009121  00000+0  32985-3 0  9998
2 60506  97.3790 148.4255 0002777 309.1571  50.9421 15.28658648 86785
STARLINK-32892          
1 62893U 25024Q   26068.09985829  .00028717  00000+0  10489-2 0  9991
2 62893  43.0009 328.8735 0000147 240.2675 119.8162 15.27584036 62175
